OBJECT_NAME,OBJECT_ID,EPOCH,MEAN_MOTION,ECCENTRICITY,INCLINATION,RA_OF_ASC_NODE,ARG_OF_PERICENTER,MEAN_ANOMALY,EPHEMERIS_TYPE,CLASSIFICATION_TYPE,NORAD_CAT_ID,ELEMENT_SET_NO,REV_AT_EPOCH,BSTAR,MEAN_MOTION_DOT,MEAN_MOTION_DDOT
SHIJIAN-17 (SJ-17),2016-065A,2026-06-29T10:01:23.276928,0.99859882,.0002263,5.7825,72.4609,31.2993,181.6142,0,U,41838,999,3532,0,.129E-5,0
GOES 16,2016-071A,2026-06-29T11:54:52.823808,1.00272090,.0000605,0.3710,85.5087,15.5010,250.5957,0,U,41866,999,3522,0,-.8E-6,0
TIANLIAN 1-04,2016-072A,2026-06-29T12:05:38.774400,1.00274018,.0043013,0.9000,82.8462,90.3828,102.5745,0,U,41869,999,3542,0,.42E-6,0
WGS F8 (USA 272),2016-075A,2026-06-29T12:20:38.625216,1.00267915,.000036,0.0471,57.6904,154.9686,39.9678,0,U,41879,999,3494,0,0,0
FENGYUN 4A,2016-077A,2026-06-29T13:12:38.727936,1.00277732,.0007908,2.3533,80.1546,157.9876,1.3273,0,U,41882,999,3505,0,-.348E-5,0
ECHOSTAR 19,2016-079A,2026-06-29T07:45:38.670336,1.00272875,.0001755,0.0182,25.7153,74.0333,196.9654,0,U,41893,999,3482,0,-.127E-5,0
JCSAT-110A (JCSAT-15),2016-082A,2026-06-29T09:30:41.410368,1.00271602,.0000855,0.0176,6.0928,96.8546,67.2789,0,U,41903,999,3488,0,-.34E-5,0
STAR ONE D1,2016-082B,2026-06-29T12:00:44.762112,1.00268271,.000279,0.0350,52.0630,79.8452,241.9000,0,U,41904,999,3489,0,0,0
TJS-2,2017-001A,2026-06-29T12:43:46.253280,1.00272759,.000084,0.8641,85.1867,49.2720,40.6370,0,U,41911,999,3484,0,.4E-7,0
SBIRS GEO-4 (USA 273),2017-004A,2026-06-29T07:22:46.494048,1.00274832,.0002387,2.2653,43.6000,47.7122,317.6977,0,U,41937,999,3472,0,.133E-5,0
HISPASAT 36W-1,2017-006A,2026-06-29T10:31:50.357856,1.00272743,.0001098,0.0091,331.1651,131.4493,296.8708,0,U,41942,999,3436,0,-.233E-5,0
TELKOM 3S,2017-007A,2026-06-29T07:50:22.481376,1.00272009,.0002535,0.0208,73.4200,26.1357,53.4555,0,U,41944,999,3426,0,-.351E-5,0
INTELSAT 32E (IS-32E),2017-007B,2026-06-29T12:12:28.636992,1.00268307,.0000889,0.0243,13.6582,344.8527,59.0307,0,U,41945,999,3434,0,0,0
ECHOSTAR 23,2017-014A,2026-06-29T07:53:14.616960,1.00268798,.000203,0.0279,27.3112,75.0002,183.5178,0,U,42070,999,3404,0,0,0
WGS F9 (USA 275),2017-016A,2026-06-29T08:56:03.484320,1.00270321,.0000435,0.0270,359.2312,55.1403,345.1125,0,U,42075,999,3401,0,0,0
SES-10,2017-017A,2026-06-29T06:57:41.399136,1.00271445,.0003111,0.0163,33.1037,71.9257,209.8746,0,U,42432,999,3387,0,-.261E-5,0
CHINASAT 16 (SJ-13),2017-018A,2026-06-29T06:05:38.552352,1.00270247,.0003965,0.0965,90.3349,126.0338,262.8950,0,U,42662,999,3387,0,-.341E-5,0
KOREASAT 7,2017-023A,2026-06-29T09:32:26.242080,1.00271161,.0000563,0.0258,26.1957,65.6541,84.6414,0,U,42691,999,3349,0,-.351E-5,0
SGDC,2017-023B,2026-06-29T10:29:23.843328,1.00272298,.0002824,0.0289,64.8748,37.3461,257.8063,0,U,42692,999,3352,0,-.239E-5,0
GSAT-9,2017-024A,2026-06-29T11:09:51.848352,1.00273933,.0002078,0.0469,89.4253,19.7885,73.1000,0,U,42695,999,3342,0,-.275E-5,0
INMARSAT 5-F4,2017-025A,2026-06-29T09:15:24.129216,1.00270140,.0000328,0.0277,31.7198,0.1281,80.9794,0,U,42698,999,3340,0,0,0
SES-15,2017-026A,2026-06-29T11:41:38.747328,1.00275391,.0001,0.0206,334.5743,149.5569,199.6934,0,U,42709,999,755,0,.7E-6,0
QZS-2 (MICHIBIKI-2),2017-028A,2026-06-29T11:25:15.815136,1.00280731,.0758904,39.4087,242.9730,269.4027,78.6029,0,U,42738,999,774,0,-.118E-5,0
VIASAT-2,2017-029A,2026-06-29T12:04:51.866976,1.00273995,.0000558,0.0182,302.1396,144.1058,302.6806,0,U,42740,999,3332,0,-.254E-5,0
EUTELSAT 172B,2017-029B,2026-06-29T08:40:38.591328,1.00273751,.0000199,0.0275,117.8301,303.1676,158.6138,0,U,42741,999,3386,0,.6E-7,0
GSAT-19,2017-031A,2026-06-29T12:38:24.268128,1.00272574,.0007111,0.0213,27.6669,51.4933,75.9111,0,U,42747,999,3327,0,0,0
ECHOSTAR 21,2017-032A,2026-06-29T12:27:42.177024,1.00274128,.0002601,1.7698,356.4949,93.3729,24.9366,0,U,42749,999,3322,0,.78E-6,0
BULGARIASAT-1,2017-038A,2026-06-29T07:17:17.019744,1.00270348,.0002982,0.0330,70.9754,32.4834,285.1486,0,U,42801,999,3296,0,.22E-6,0
HELLAS-SAT 3,2017-040A,2026-06-29T12:35:54.508416,1.00270797,.0004253,0.0450,42.0156,20.0829,83.4792,0,U,42814,999,3293,0,.163E-5,0
GSAT-17,2017-040B,2026-06-29T09:26:04.353216,1.00271789,.000135,0.0355,85.6884,200.1430,226.6685,0,U,42815,999,3291,0,-.247E-5,0
INTELSAT 35E (IS-35E),2017-041A,2026-06-29T12:14:50.911008,1.00268005,.0002383,0.0224,12.9091,87.0965,326.8023,0,U,42818,999,3293,0,0,0
COSMOS 2520,2017-046A,2026-06-29T12:37:31.850976,1.00271386,.0000815,0.0423,101.4133,359.7619,50.8073,0,U,42907,999,3252,0,.148E-5,0
