SHIJIAN-17 (SJ-17)      
1 41838U 16065A   26180.41763052  .00000129  00000+0  00000+0 0  9997
2 41838   5.7825  72.4609 0002263  31.2993 181.6142  0.99859882 35325
GOES 16                 
1 41866U 16071A   26180.49644472 -.00000080  00000+0  00000+0 0  9994
2 41866   0.3710  85.5087 0000605  15.5010 250.5957  1.00272090 35220
TIANLIAN 1-04           
1 41869U 16072A   26180.50392100  .00000042  00000+0  00000+0 0  9995
2 41869   0.9000  82.8462 0043013  90.3828 102.5745  1.00274018 35421
WGS F8 (USA 272)        
1 41879U 16075A   26180.51433594  .00000000  00000+0  00000+0 0  9997
2 41879   0.0471  57.6904 0000360 154.9686  39.9678  1.00267915 34945
FENGYUN 4A              
1 41882U 16077A   26180.55044824 -.00000348  00000+0  00000+0 0  9997
2 41882   2.3533  80.1546 0007908 157.9876   1.3273  1.00277732 35050
ECHOSTAR 19             
1 41893U 16079A   26180.32336424 -.00000127  00000+0  00000+0 0  9991
2 41893   0.0182  25.7153 0001755  74.0333 196.9654  1.00272875 34828
JCSAT-110A (JCSAT-15)   
1 41903U 16082A   26180.39631262 -.00000340  00000+0  00000+0 0  9999
2 41903   0.0176   6.0928 0000855  96.8546  67.2789  1.00271602 34885
STAR ONE D1             
1 41904U 16082B   26180.50051808  .00000000  00000+0  00000+0 0  9997
2 41904   0.0350  52.0630 0002790  79.8452 241.9000  1.00268271 34894
TJS-2                   
1 41911U 17001A   26180.53039645  .00000004  00000+0  00000+0 0  9999
2 41911   0.8641  85.1867 0000840  49.2720  40.6370  1.00272759 34840
SBIRS GEO-4 (USA 273)   
1 41937U 17004A   26180.30748257  .00000133  00000+0  00000+0 0  9994
2 41937   2.2653  43.6000 0002387  47.7122 317.6977  1.00274832 34723
HISPASAT 36W-1          
1 41942U 17006A   26180.43877729 -.00000233  00000+0  00000+0 0  9995
2 41942   0.0091 331.1651 0001098 131.4493 296.8708  1.00272743 34367
TELKOM 3S               
1 41944U 17007A   26180.32664909 -.00000351  00000+0  00000+0 0  9991
2 41944   0.0208  73.4200 0002535  26.1357  53.4555  1.00272009 34262
INTELSAT 32E (IS-32E)   
1 41945U 17007B   26180.50866478  .00000000  00000+0  00000+0 0  9997
2 41945   0.0243  13.6582 0000889 344.8527  59.0307  1.00268307 34342
ECHOSTAR 23             
1 42070U 17014A   26180.32864140  .00000000  00000+0  00000+0 0  9999
2 42070   0.0279  27.3112 0002030  75.0002 183.5178  1.00268798 34043
WGS F9 (USA 275)        
1 42075U 17016A   26180.37226255  .00000000  00000+0  00000+0 0  9990
2 42075   0.0270 359.2312 0000435  55.1403 345.1125  1.00270321 34019
SES-10                  
1 42432U 17017A   26180.29006249 -.00000261  00000+0  00000+0 0  9998
2 42432   0.0163  33.1037 0003111  71.9257 209.8746  1.00271445 33872
CHINASAT 16 (SJ-13)     
1 42662U 17018A   26180.25391843 -.00000341  00000+0  00000+0 0  9996
2 42662   0.0965  90.3349 0003965 126.0338 262.8950  1.00270247 33872
KOREASAT 7              
1 42691U 17023A   26180.39752595 -.00000351  00000+0  00000+0 0  9995
2 42691   0.0258  26.1957 0000563  65.6541  84.6414  1.00271161 33495
SGDC                    
1 42692U 17023B   26180.43708152 -.00000239  00000+0  00000+0 0  9996
2 42692   0.0289  64.8748 0002824  37.3461 257.8063  1.00272298 33526
GSAT-9                  
1 42695U 17024A   26180.46518343 -.00000275  00000+0  00000+0 0  9994
2 42695   0.0469  89.4253 0002078  19.7885  73.1000  1.00273933 33424
INMARSAT 5-F4           
1 42698U 17025A   26180.38569594  .00000000  00000+0  00000+0 0  9998
2 42698   0.0277  31.7198 0000328   0.1281  80.9794  1.00270140 33403
SES-15                  
1 42709U 17026A   26180.48725402  .00000070  00000+0  00000+0 0  9992
2 42709   0.0206 334.5743 0001000 149.5569 199.6934  1.00275391  7557
QZS-2 (MICHIBIKI-2)     
1 42738U 17028A   26180.47587749 -.00000118  00000+0  00000+0 0  9999
2 42738  39.4087 242.9730 0758904 269.4027  78.6029  1.00280731  7749
VIASAT-2                
1 42740U 17029A   26180.50337809 -.00000254  00000+0  00000+0 0  9998
2 42740   0.0182 302.1396 0000558 144.1058 302.6806  1.00273995 33327
EUTELSAT 172B           
1 42741U 17029B   26180.36155777  .00000006  00000+0  00000+0 0  9999
2 42741   0.0275 117.8301 0000199 303.1676 158.6138  1.00273751 33868
GSAT-19                 
1 42747U 17031A   26180.52666977  .00000000  00000+0  00000+0 0  9999
2 42747   0.0213  27.6669 0007111  51.4933  75.9111  1.00272574 33270
ECHOSTAR 21             
1 42749U 17032A   26180.51923816  .00000078  00000+0  00000+0 0  9994
2 42749   1.7698 356.4949 0002601  93.3729  24.9366  1.00274128 33226
BULGARIASAT-1           
1 42801U 17038A   26180.30366921  .00000022  00000+0  00000+0 0  9993
2 42801   0.0330  70.9754 0002982  32.4834 285.1486  1.00270348 32969
HELLAS-SAT 3            
1 42814U 17040A   26180.52493644  .00000163  00000+0  00000+0 0  9993
2 42814   0.0450  42.0156 0004253  20.0829  83.4792  1.00270797 32936
GSAT-17                 
1 42815U 17040B   26180.39310594 -.00000247  00000+0  00000+0 0  9995
2 42815   0.0355  85.6884 0001350 200.1430 226.6685  1.00271789 32918
INTELSAT 35E (IS-35E)   
1 42818U 17041A   26180.51031147  .00000000  00000+0  00000+0 0  9993
2 42818   0.0224  12.9091 0002383  87.0965 326.8023  1.00268005 32939
COSMOS 2520             
1 42907U 17046A   26180.52606309  .00000148  00000+0  00000+0 0  9999
2 42907   0.0423 101.4133 0000815 359.7619  50.8073  1.00271386 32523
